AEROCUBE 12A            
1 43556U 18046C   20360.47244202  .00003495  00000-0  12803-3 0  9996
2 43556  51.6414 267.2679 0007223 258.6623 101.3546 15.30705324136629
AEROCUBE 12B            
1 43557U 18046D   20360.77022376  .00002983  00000-0  11250-3 0  9992
2 43557  51.6399 266.9863 0007363 258.0593 101.9562 15.30275214136600
SIRIUSSAT-1             
1 43595U 98067PG  20344.55055662  .07916525  12514-4  56251-3 0  9997
2 43595  51.6588  97.6693 0009437  42.2825  52.9592 16.39998780132780
SIRIUSSAT-2             
1 43596U 98067PH  20344.36554324  .08904132  12494-4  57179-3 0  9995
2 43596  51.6062  99.6513 0006261 312.7483  99.6145 16.40921535132742
SURFSAT                 
1 43614U 18070B   20360.35249191  .00005722  00000-0  14080-3 0  9991
2 43614  93.0273 233.6971 0013123 329.3785  30.6703 15.40553242127855
CP7 (DAVE)              
1 43615U 18070C   20360.40562104  .00005362  00000-0  13293-3 0  9995
2 43615  93.0276 233.6956 0013264 328.7055  31.3409 15.40330544127850
ELFIN-B                 
1 43616U 18070D   20360.57287598  .00008376  00000-0  19411-3 0  9991
2 43616  93.0234 233.7917 0013394 328.3009  31.7439 15.42337073127956
ELFIN-A                 
1 43617U 18070E   20360.57620289  .00007938  00000-0  18205-3 0  9993
2 43617  93.0288 234.4740 0012629 325.1202  34.9225 15.42663553127962
CUBEBEL-1 (BSUSAT-1)    
1 43666U 18083E   20360.74212112  .00002164  00000-0  10718-3 0  9999
2 43666  97.4740  25.1928 0016264  57.7944  54.1317 15.18748243119645
CICERO 10               
1 43690U 18088A   20360.42618773  .00002629  00000-0  11770-3 0  9994
2 43690  85.0372 312.4492 0013759 338.9930  21.0744 15.20690868117770
IRVINE01                
1 43693U 18088D   20360.45166870  .00005820  00000-0  23731-3 0  9992
2 43693  85.0338 310.4831 0015278 314.8655  45.1346 15.24107814117925
PROXIMA I               
1 43694U 18088E   20360.33083514  .00002395  00000-0  10153-3 0  9991
2 43694  85.0314 310.5614 0016895 306.2518  53.7162 15.22435831117886
PROXIMA II              
1 43696U 18088G   20360.32894191  .00002361  00000-0  10009-3 0  9996
2 43696  85.0315 310.5687 0016943 306.1621  53.8053 15.22435389117874
FACSAT-1                
1 43721U 18096C   20360.78410429  .00003510  00000-0  13073-3 0  9993
2 43721  97.4041  73.2043 0017536 161.5781 350.1551 15.27997400115599
CENTAURI-2              
1 43722U 18096D   20360.70460740  .00004540  00000-0  16433-3 0  9994
2 43722  97.4063  73.6187 0017654 161.4415 198.7473 15.28775999115600
INNOSAT-2               
1 43738U 18096V   20360.73913839  .00006618  00000-0  21675-3 0  9998
2 43738  97.4089  76.4802 0022984 166.4089 315.1828 15.31747100115790
SIRION PATHFINDER-2     
1 43759U 18099B   20360.55853501  .00001203  00000-0  11394-3 0  9995
2 43759  97.6869  68.7563 0012518 263.4709  96.5091 14.95395016112498
CORVUS BC4              
1 43767U 18099K   20360.63783495  .00000317  00000-0  34293-4 0  9996
2 43767  97.6846  68.0333 0010145 269.2205  90.7859 14.94830820112460
MOVE-II                 
1 43780U 18099Y   20360.48217189  .00001421  00000-0  13286-3 0  9991
2 43780  97.6886  68.6943 0011924 276.3893  83.5970 14.95651000112466
SPACEBEE-7              
1 43816U 18099BL  20360.45309485  .00000435  00000-0  44001-4 0  9993
2 43816  97.6897  69.1706 0012115 259.1430 100.8428 14.95898782112045
SPACEBEE-5              
1 43817U 18099BM  20360.44796818  .00001436  00000-0  13043-3 0  9996
2 43817  97.6970  69.9690 0011998 258.3065 101.6811 14.96795126112078
SPACEBEE-6              
1 43818U 18099BN  20360.45488905  .00000818  00000-0  77655-4 0  9996
2 43818  97.6916  69.4199 0012102 258.4823 101.5039 14.96173017112204
SHIELDS 1               
1 43850U 18104B   20360.52666310  .00000899  00000-0  37883-4 0  9993
2 43850  85.0295  49.0084 0017191  88.6148 271.7063 15.21622688112528
STF-1                   
1 43852U 18104D   20360.53814621  .00002109  00000-0  90778-4 0  9994
2 43852  85.0338  49.6444 0016790 101.4667 258.8461 15.21827057112501
ZACUBE-2                
1 43907U 18111AH  20360.77642198  .00001074  00000-0  45766-4 0  9994
2 43907  97.2491 254.5795 0021041 182.8673 262.5948 15.24875107111163
LUME 1                  
1 43908U 18111AJ  20360.48506308  .00002322  00000-0  93676-4 0  9995
2 43908  97.2498 254.6277 0020613 182.6301 177.4832 15.25595178111149
AOBA VELOX-IV           
1 43940U 19003J   20360.40593424  .00003937  00000-0  15525-3 0  9998
2 43940  97.2051  44.9489 0021510 266.8669  93.0108 15.25924228107757
CATSAT-2                
1 44029U 98067PV  20360.65335878  .00075221  00000-0  44433-3 0  9993
2 44029  51.6405  60.8141 0003112  46.8321 313.2939 15.77445773108552
DELPHINI                
1 44030U 98067PW  20360.64801527  .00094359  00000-0  46220-3 0  9992
2 44030  51.6317  56.7707 0004417  36.1109 324.0190 15.81479366108574
UNITE                   
1 44031U 98067PX  20360.61452470  .00025278  00000-0  23563-3 0  9998
2 44031  51.6380  75.5529 0002810  54.2457 305.8800 15.67176049108322
CATSAT-1                
1 44033U 98067PZ  20360.46312205  .00067159  00000-0  39860-3 0  9995
2 44033  51.6404  61.8035 0003275  45.5098 314.6170 15.77383162108438
RAAVANA-1               
1 44329U 98067QE  20360.51607389  .00028300  00000-0  29578-3 0  9999
2 44329  51.6376  92.9901 0005683 354.7369   5.3566 15.64220440 86839
UGUISU                  
1 44330U 98067QF  20360.54259869  .00029779  00000-0  31300-3 0  9997
2 44330  51.6355  93.1168 0005659 354.4406   5.6525 15.64048243 86813
NEPALISAT-1             
1 44331U 98067QG  20360.50717365  .00028163  00000-0  29445-3 0  9997
2 44331  51.6354  92.8821 0005682 356.9247   3.1712 15.64214943 86825
SPOOQY-1                
1 44332U 98067QH  20360.65724584  .00027116  00000-0  28675-3 0  9996
2 44332  51.6362  92.4005 0004904   0.0338   0.0657 15.63950761 86805
SPACEBEE-9              
1 44370U 19037F   20360.05801591  .00031262  00000-0  57993-3 0  9998
2 44370  45.0031 127.1767 0013925 250.1729 109.7662 15.48356182 84084
SPACEBEE-8              
1 44371U 19037G   20360.57486340  .00068142  00000-0  83461-3 0  9993
2 44371  45.0036 108.2173 0012684 289.6763  70.2763 15.59444310 84354
IOD-1 GEMS              
1 44385U 98067QK  20360.56624660  .00071028  00000-0  51142-3 0  9994
2 44385  51.6361  85.0970 0004383 335.6684  24.4107 15.72911595 84410
MOVE-IIB                
1 44398U 19038N   20360.60743693  .00002556  00000-0  14775-3 0  9993
2 44398  97.5590 319.7322 0024208 185.2601 174.8379 15.12963602 81475
SONATE                  
1 44400U 19038Q   20360.63904138  .00000750  00000-0  46957-4 0  9995
2 44400  97.5657 319.7431 0024752 184.5420 175.5611 15.12233857 81467
LUCKY-7                 
1 44406U 19038W   20360.61850968  .00001170  00000-0  70455-4 0  9997
2 44406  97.5664 319.8955 0024185 183.7310 176.3745 15.12562083 81465
BEESAT 9                
1 44412U 19038AC  20360.46941522  .00001616  00000-0  95441-4 0  9991
2 44412  97.5654 319.7378 0021987 189.4496 170.6324 15.12756783 81141
JAISAT-1                
1 44419U 19038F   20360.62704200  .00001658  00000-0  96596-4 0  9994
2 44419  97.5653 320.3045 0020902 187.3492 172.7436 15.13240600 81509
SWIATOWID               
1 44426U 98067QL  20360.71291922  .00109695  00000-0  66653-3 0  9993
2 44426  51.6391  81.2282 0004780 337.9979 157.9439 15.76646593 84480
KRAKSAT                 
1 44427U 98067QM  20360.74274242  .00021298  00000-0  26057-3 0  9999
2 44427  51.6416  98.8057 0003174 313.8053 172.4702 15.60336661 84294
VCC A                   
1 44428U 98067QN  20360.66547112  .00027016  00000-0  29380-3 0  9996
2 44428  51.6385  94.7935 0003043 331.8070  28.2760 15.63244555 84345
ENTRYSAT                
1 44429U 98067QP  20360.63894484  .00035292  00000-0  34400-3 0  9995
2 44429  51.6353  91.5485 0003185 329.6554  30.4256 15.65875192 84383
VCC C                   
1 44430U 98067QQ  20360.68960076  .00049758  00000-0  41334-3 0  9999
2 44430  51.6357  87.3854 0003427 338.6540  21.4313 15.69653263 83263
VCC B                   
1 44431U 98067QR  20360.52754747  .00026934  00000-0  29125-3 0  9994
2 44431  51.6362  95.3278 0003177 331.1195  28.9624 15.63391990 84263
DUCHIFAT-3              
1 44854U 19089C   20360.84990244  .00000707  00000-0  63235-4 0  9990
2 44854  36.9664  47.1027 0007448 177.7990 182.2797 14.99266842 57037
EYESAT-NANO             
1 44877U 19092E   20360.49297454  .00002232  00000-0  11486-3 0  9998
2 44877  97.4539 180.7182 0014887  76.5499 283.7393 15.17368147 56553
ORBITAL FACTORY 2 (OF-2)
1 45113U 19071C   20360.45896693  .00005250  00000-0  16584-3 0  9992
2 45113  51.6407 160.2821 0012511  28.3546 331.8115 15.34445042 50444
M2 PATHFINDER           
1 45727U 20037E   20360.50670606  .00000243  00000-0  29899-4 0  9998
2 45727  97.7030 176.2010 0013369  30.1077 330.0960 14.91285819 26490
NETSAT-4                
1 46504U 20068U   20360.55892713  .00000917  00000-0  74697-4 0  9990
2 46504  97.6770 293.0447 0009576 334.3726  25.7051 15.01938328 13139
NETSAT-3                
1 46505U 20068V   20360.56123968  .00001017  00000-0  82425-4 0  9991
2 46505  97.6764 293.0350 0009705 335.6578  24.4217 15.01899420 13149
NETSAT-1                
1 46506U 20068W   20360.56374030  .00001281  00000-0  10269-3 0  9999
2 46506  97.6742 293.0266 0009603 335.0132  25.0645 15.01859784 13140
NETSAT-2                
1 46507U 20068X   20360.56468049  .00001255  00000-0  10074-3 0  9999
2 46507  97.6742 293.0277 0009412 334.7663  25.3122 15.01839257 13096
SPOC                    
1 46921U 98067RR  20360.55689655  .00010754  00000-0  18835-3 0  9997
2 46921  51.6421 121.0298 0002304 144.6854 215.4289 15.51158050  7848
BOBCAT-1                
1 46922U 98067RS  20360.61672003  .00015313  00000-0  26160-3 0  9990
2 46922  51.6423 120.6803 0001917 150.4704 209.6395 15.51497012  7809
